CCSDS_OMM_VERS = 2.0
CREATION_DATE  = 
ORIGINATOR     = 

OBJECT_NAME    = STARLINK-37000
OBJECT_ID      = 2026-041Z
CENTER_NAME    = EARTH
REF_FRAME      = TEME
TIME_SYSTEM    = UTC
MEAN_ELEMENT_THEORY = SGP/SGP4

EPOCH          = 2026-03-30T00:52:34.588416
MEAN_MOTION    = 15.75321971
ECCENTRICITY   = .0001839
INCLINATION    = 53.1596
RA_OF_ASC_NODE = 320.3856
ARG_OF_PERICENTER = 259.6902
MEAN_ANOMALY   = 100.3911

EPHEMERIS_TYPE = 0
CLASSIFICATION_TYPE = U
NORAD_CAT_ID   = 68063
ELEMENT_SET_NO = 999
REV_AT_EPOCH   = 443
BSTAR          = .1824E-2
MEAN_MOTION_DOT = .289792E-2
MEAN_MOTION_DDOT = 0

CCSDS_OMM_VERS = 2.0
CREATION_DATE  = 
ORIGINATOR     = 

OBJECT_NAME    = STARLINK-36996
OBJECT_ID      = 2026-041AA
CENTER_NAME    = EARTH
REF_FRAME      = TEME
TIME_SYSTEM    = UTC
MEAN_ELEMENT_THEORY = SGP/SGP4

EPOCH          = 2026-03-30T00:19:54.557760
MEAN_MOTION    = 15.75239117
ECCENTRICITY   = .0001561
INCLINATION    = 53.1593
RA_OF_ASC_NODE = 320.2349
ARG_OF_PERICENTER = 85.0688
MEAN_ANOMALY   = 275.0510

EPHEMERIS_TYPE = 0
CLASSIFICATION_TYPE = U
NORAD_CAT_ID   = 68064
ELEMENT_SET_NO = 999
REV_AT_EPOCH   = 443
BSTAR          = .88532E-3
MEAN_MOTION_DOT = .137294E-2
MEAN_MOTION_DDOT = 0

CCSDS_OMM_VERS = 2.0
CREATION_DATE  = 
ORIGINATOR     = 

OBJECT_NAME    = STARLINK-36836
OBJECT_ID      = 2026-041AB
CENTER_NAME    = EARTH
REF_FRAME      = TEME
TIME_SYSTEM    = UTC
MEAN_ELEMENT_THEORY = SGP/SGP4

EPOCH          = 2026-03-30T04:00:01.999584
MEAN_MOTION    = 15.75213341
ECCENTRICITY   = .0000938
INCLINATION    = 53.1575
RA_OF_ASC_NODE = 319.4731
ARG_OF_PERICENTER = 69.4336
MEAN_ANOMALY   = 79.8993

EPHEMERIS_TYPE = 0
CLASSIFICATION_TYPE = U
NORAD_CAT_ID   = 68065
ELEMENT_SET_NO = 999
REV_AT_EPOCH   = 566
BSTAR          = .26585E-3
MEAN_MOTION_DOT = .4026E-3
MEAN_MOTION_DDOT = 0

CCSDS_OMM_VERS = 2.0
CREATION_DATE  = 
ORIGINATOR     = 

OBJECT_NAME    = STARLINK-36976
OBJECT_ID      = 2026-041AC
CENTER_NAME    = EARTH
REF_FRAME      = TEME
TIME_SYSTEM    = UTC
MEAN_ELEMENT_THEORY = SGP/SGP4

EPOCH          = 2026-03-30T02:37:00.884064
MEAN_MOTION    = 15.75362275
ECCENTRICITY   = .0000739
INCLINATION    = 53.1573
RA_OF_ASC_NODE = 320.1298
ARG_OF_PERICENTER = 57.9092
MEAN_ANOMALY   = 302.2000

EPHEMERIS_TYPE = 0
CLASSIFICATION_TYPE = U
NORAD_CAT_ID   = 68066
ELEMENT_SET_NO = 999
REV_AT_EPOCH   = 444
BSTAR          = .21596E-2
MEAN_MOTION_DOT = .346181E-2
MEAN_MOTION_DDOT = 0

CCSDS_OMM_VERS = 2.0
CREATION_DATE  = 
ORIGINATOR     = 

OBJECT_NAME    = STARLINK-36929
OBJECT_ID      = 2026-041AD
CENTER_NAME    = EARTH
REF_FRAME      = TEME
TIME_SYSTEM    = UTC
MEAN_ELEMENT_THEORY = SGP/SGP4

EPOCH          = 2026-03-29T22:08:59.402400
MEAN_MOTION    = 15.75281070
ECCENTRICITY   = .000056
INCLINATION    = 53.1583
RA_OF_ASC_NODE = 321.1048
ARG_OF_PERICENTER = 114.2697
MEAN_ANOMALY   = 245.8382

EPHEMERIS_TYPE = 0
CLASSIFICATION_TYPE = U
NORAD_CAT_ID   = 68067
ELEMENT_SET_NO = 999
REV_AT_EPOCH   = 441
BSTAR          = .17161E-2
MEAN_MOTION_DOT = .271551E-2
MEAN_MOTION_DDOT = 0

CCSDS_OMM_VERS = 2.0
CREATION_DATE  = 
ORIGINATOR     = 

OBJECT_NAME    = STARLINK-36990
OBJECT_ID      = 2026-041AE
CENTER_NAME    = EARTH
REF_FRAME      = TEME
TIME_SYSTEM    = UTC
MEAN_ELEMENT_THEORY = SGP/SGP4

EPOCH          = 2026-03-30T04:28:41.172096
MEAN_MOTION    = 15.80974597
ECCENTRICITY   = .0001358
INCLINATION    = 53.1579
RA_OF_ASC_NODE = 319.1715
ARG_OF_PERICENTER = 19.4938
MEAN_ANOMALY   = 340.6136

EPHEMERIS_TYPE = 0
CLASSIFICATION_TYPE = U
NORAD_CAT_ID   = 68068
ELEMENT_SET_NO = 999
REV_AT_EPOCH   = 446
BSTAR          = .1573E-2
MEAN_MOTION_DOT = .323175E-2
MEAN_MOTION_DDOT = 0

CCSDS_OMM_VERS = 2.0
CREATION_DATE  = 
ORIGINATOR     = 

OBJECT_NAME    = STARLINK-36766
OBJECT_ID      = 2026-042A
CENTER_NAME    = EARTH
REF_FRAME      = TEME
TIME_SYSTEM    = UTC
MEAN_ELEMENT_THEORY = SGP/SGP4

EPOCH          = 2026-03-29T00:59:35.527488
MEAN_MOTION    = 15.81098153
ECCENTRICITY   = .0001763
INCLINATION    = 53.1576
RA_OF_ASC_NODE = 97.7950
ARG_OF_PERICENTER = 146.7926
MEAN_ANOMALY   = 213.3207

EPHEMERIS_TYPE = 0
CLASSIFICATION_TYPE = U
NORAD_CAT_ID   = 68069
ELEMENT_SET_NO = 999
REV_AT_EPOCH   = 514
BSTAR          = .27102E-2
MEAN_MOTION_DOT = .577489E-2
MEAN_MOTION_DDOT = 0

CCSDS_OMM_VERS = 2.0
CREATION_DATE  = 
ORIGINATOR     = 

OBJECT_NAME    = STARLINK-36823
OBJECT_ID      = 2026-042B
CENTER_NAME    = EARTH
REF_FRAME      = TEME
TIME_SYSTEM    = UTC
MEAN_ELEMENT_THEORY = SGP/SGP4

EPOCH          = 2026-03-30T04:17:10.076640
MEAN_MOTION    = 15.80910954
ECCENTRICITY   = .0001532
INCLINATION    = 53.1570
RA_OF_ASC_NODE = 92.0857
ARG_OF_PERICENTER = 126.6618
MEAN_ANOMALY   = 233.4545

EPHEMERIS_TYPE = 0
CLASSIFICATION_TYPE = U
NORAD_CAT_ID   = 68070
ELEMENT_SET_NO = 999
REV_AT_EPOCH   = 532
BSTAR          = .2047E-2
MEAN_MOTION_DOT = .424555E-2
MEAN_MOTION_DDOT = 0

CCSDS_OMM_VERS = 2.0
CREATION_DATE  = 
ORIGINATOR     = 

OBJECT_NAME    = STARLINK-36970
OBJECT_ID      = 2026-042C
CENTER_NAME    = EARTH
REF_FRAME      = TEME
TIME_SYSTEM    = UTC
MEAN_ELEMENT_THEORY = SGP/SGP4

EPOCH          = 2026-03-30T00:06:19.739232
MEAN_MOTION    = 15.75536204
ECCENTRICITY   = .0002182
INCLINATION    = 53.1593
RA_OF_ASC_NODE = 93.1381
ARG_OF_PERICENTER = 151.7645
MEAN_ANOMALY   = 208.3494

EPHEMERIS_TYPE = 0
CLASSIFICATION_TYPE = U
NORAD_CAT_ID   = 68071
ELEMENT_SET_NO = 999
REV_AT_EPOCH   = 529
BSTAR          = .34933E-2
MEAN_MOTION_DOT = .580722E-2
MEAN_MOTION_DDOT = 0

CCSDS_OMM_VERS = 2.0
CREATION_DATE  = 
ORIGINATOR     = 

OBJECT_NAME    = STARLINK-36972
OBJECT_ID      = 2026-042D
CENTER_NAME    = EARTH
REF_FRAME      = TEME
TIME_SYSTEM    = UTC
MEAN_ELEMENT_THEORY = SGP/SGP4

EPOCH          = 2026-03-30T02:45:02.976192
MEAN_MOTION    = 15.81286512
ECCENTRICITY   = .0001787
INCLINATION    = 53.1571
RA_OF_ASC_NODE = 92.3984
ARG_OF_PERICENTER = 169.0753
MEAN_ANOMALY   = 191.0309

EPHEMERIS_TYPE = 0
CLASSIFICATION_TYPE = U
NORAD_CAT_ID   = 68072
ELEMENT_SET_NO = 999
REV_AT_EPOCH   = 531
BSTAR          = .33438E-2
MEAN_MOTION_DOT = .732099E-2
MEAN_MOTION_DDOT = 0

CCSDS_OMM_VERS = 2.0
CREATION_DATE  = 
ORIGINATOR     = 

OBJECT_NAME    = STARLINK-37074
OBJECT_ID      = 2026-042E
CENTER_NAME    = EARTH
REF_FRAME      = TEME
TIME_SYSTEM    = UTC
MEAN_ELEMENT_THEORY = SGP/SGP4

EPOCH          = 2026-03-30T04:00:01.999584
MEAN_MOTION    = 15.75215674
ECCENTRICITY   = .0001481
INCLINATION    = 53.1581
RA_OF_ASC_NODE = 92.2256
ARG_OF_PERICENTER = 103.0432
MEAN_ANOMALY   = 149.4417

EPHEMERIS_TYPE = 0
CLASSIFICATION_TYPE = U
NORAD_CAT_ID   = 68073
ELEMENT_SET_NO = 999
REV_AT_EPOCH   = 534
BSTAR          = .20782E-3
MEAN_MOTION_DOT = .31302E-3
MEAN_MOTION_DDOT = 0

CCSDS_OMM_VERS = 2.0
CREATION_DATE  = 
ORIGINATOR     = 

OBJECT_NAME    = STARLINK-37045
OBJECT_ID      = 2026-042F
CENTER_NAME    = EARTH
REF_FRAME      = TEME
TIME_SYSTEM    = UTC
MEAN_ELEMENT_THEORY = SGP/SGP4

EPOCH          = 2026-03-30T04:00:01.999584
MEAN_MOTION    = 15.75220873
ECCENTRICITY   = .0001217
INCLINATION    = 53.1588
RA_OF_ASC_NODE = 92.4949
ARG_OF_PERICENTER = 93.6697
MEAN_ANOMALY   = 28.1837

EPHEMERIS_TYPE = 0
CLASSIFICATION_TYPE = U
NORAD_CAT_ID   = 68074
ELEMENT_SET_NO = 999
REV_AT_EPOCH   = 534
BSTAR          = .29575E-3
MEAN_MOTION_DOT = .449E-3
MEAN_MOTION_DDOT = 0

