STARLINK-37000          
1 68063U 26041Z   26089.03651144  .00289792  00000+0  18240-2 0  9998
2 68063  53.1596 320.3856 0001839 259.6902 100.3911 15.75321971  4432
STARLINK-36996          
1 68064U 26041AA  26089.01382590  .00137294  00000+0  88532-3 0  9994
2 68064  53.1593 320.2349 0001561  85.0688 275.0510 15.75239117  4435
STARLINK-36836          
1 68065U 26041AB  26089.16668981  .00040260  00000+0  26585-3 0  9998
2 68065  53.1575 319.4731 0000938  69.4336  79.8993 15.75213341  5666
STARLINK-36976          
1 68066U 26041AC  26089.10903801  .00346181  00000+0  21596-2 0  9993
2 68066  53.1573 320.1298 0000739  57.9092 302.2000 15.75362275  4440
STARLINK-36929          
1 68067U 26041AD  26088.92290975  .00271551  00000+0  17161-2 0  9995
2 68067  53.1583 321.1048 0000560 114.2697 245.8382 15.75281070  4411
STARLINK-36990          
1 68068U 26041AE  26089.18658764  .00323175  00000+0  15730-2 0  9999
2 68068  53.1579 319.1715 0001358  19.4938 340.6136 15.80974597  4460
STARLINK-36766          
1 68069U 26042A   26088.04138342  .00577489  00000+0  27102-2 0  9995
2 68069  53.1576  97.7950 0001763 146.7926 213.3207 15.81098153  5146
STARLINK-36823          
1 68070U 26042B   26089.17858885  .00424555  00000+0  20470-2 0  9999
2 68070  53.1570  92.0857 0001532 126.6618 233.4545 15.80910954  5324
STARLINK-36970          
1 68071U 26042C   26089.00439513  .00580722  00000+0  34933-2 0  9993
2 68071  53.1593  93.1381 0002182 151.7645 208.3494 15.75536204  5291
STARLINK-36972          
1 68072U 26042D   26089.11461778  .00732099  00000+0  33438-2 0  9999
2 68072  53.1571  92.3984 0001787 169.0753 191.0309 15.81286512  5317
STARLINK-37074          
1 68073U 26042E   26089.16668981  .00031302  00000+0  20782-3 0  9998
2 68073  53.1581  92.2256 0001481 103.0432 149.4417 15.75215674  5347
STARLINK-37045          
1 68074U 26042F   26089.16668981  .00044900  00000+0  29575-3 0  9996
2 68074  53.1588  92.4949 0001217  93.6697  28.1837 15.75220873  5346
